[{"OBJECT_NAME":"TDRS 3","OBJECT_ID":"1988-091B","EPOCH":"2026-04-26T21:47:38.620032","MEAN_MOTION":1.00274944,"ECCENTRICITY":0.0040969,"INCLINATION":12.641,"RA_OF_ASC_NODE":341.3448,"ARG_OF_PERICENTER":356.1807,"MEAN_ANOMALY":155.4467,"EPHEMERIS_TYPE":0,"CLASSIFICATION_TYPE":"U","NORAD_CAT_ID":19548,"ELEMENT_SET_NO":999,"REV_AT_EPOCH":12487,"BSTAR":0,"MEAN_MOTION_DOT":-3.11e-6,"MEAN_MOTION_DDOT":0},{"OBJECT_NAME":"FLTSATCOM 8 (USA 46)","OBJECT_ID":"1989-077A","EPOCH":"2026-04-26T18:13:26.874912","MEAN_MOTION":1.00280654,"ECCENTRICITY":0.00068445,"INCLINATION":12.4362,"RA_OF_ASC_NODE":351.4748,"ARG_OF_PERICENTER":17.9769,"MEAN_ANOMALY":244.1935,"EPHEMERIS_TYPE":0,"CLASSIFICATION_TYPE":"U","NORAD_CAT_ID":20253,"ELEMENT_SET_NO":999,"REV_AT_EPOCH":26004,"BSTAR":0,"MEAN_MOTION_DOT":-3.79e-6,"MEAN_MOTION_DDOT":0},{"OBJECT_NAME":"SKYNET 4C","OBJECT_ID":"1990-079A","EPOCH":"2026-04-26T18:51:34.021152","MEAN_MOTION":1.00269928,"ECCENTRICITY":0.00026822,"INCLINATION":13.3569,"RA_OF_ASC_NODE":350.1687,"ARG_OF_PERICENTER":32.4888,"MEAN_ANOMALY":148.3564,"EPHEMERIS_TYPE":0,"CLASSIFICATION_TYPE":"U","NORAD_CAT_ID":20776,"ELEMENT_SET_NO":999,"REV_AT_EPOCH":13037,"BSTAR":0,"MEAN_MOTION_DOT":1.14e-6,"MEAN_MOTION_DDOT":0},{"OBJECT_NAME":"TDRS 5","OBJECT_ID":"1991-054B","EPOCH":"2026-04-26T19:37:00.172704","MEAN_MOTION":1.00271012,"ECCENTRICITY":0.00079273,"INCLINATION":14.0783,"RA_OF_ASC_NODE":354.1634,"ARG_OF_PERICENTER":285.4071,"MEAN_ANOMALY":61.7814,"EPHEMERIS_TYPE":0,"CLASSIFICATION_TYPE":"U","NORAD_CAT_ID":21639,"ELEMENT_SET_NO":999,"REV_AT_EPOCH":12719,"BSTAR":0,"MEAN_MOTION_DOT":7.2e-7,"MEAN_MOTION_DDOT":0},{"OBJECT_NAME":"TDRS 6","OBJECT_ID":"1993-003B","EPOCH":"2026-04-27T02:10:24.362400","MEAN_MOTION":1.00273429,"ECCENTRICITY":0.0005997,"INCLINATION":14.1825,"RA_OF_ASC_NODE":357.4398,"ARG_OF_PERICENTER":179.048,"MEAN_ANOMALY":25.4426,"EPHEMERIS_TYPE":0,"CLASSIFICATION_TYPE":"U","NORAD_CAT_ID":22314,"ELEMENT_SET_NO":999,"REV_AT_EPOCH":12189,"BSTAR":0,"MEAN_MOTION_DOT":-3.06e-6,"MEAN_MOTION_DDOT":0},{"OBJECT_NAME":"UFO 2 (USA 95)","OBJECT_ID":"1993-056A","EPOCH":"2026-04-26T21:37:35.956704","MEAN_MOTION":1.0027876,"ECCENTRICITY":0.00085323,"INCLINATION":11.8778,"RA_OF_ASC_NODE":3.8358,"ARG_OF_PERICENTER":355.3201,"MEAN_ANOMALY":208.9051,"EPHEMERIS_TYPE":0,"CLASSIFICATION_TYPE":"U","NORAD_CAT_ID":22787,"ELEMENT_SET_NO":999,"REV_AT_EPOCH":11803,"BSTAR":0,"MEAN_MOTION_DOT":1.15e-6,"MEAN_MOTION_DDOT":0},{"OBJECT_NAME":"USA 99 (MILSTAR-1 1)","OBJECT_ID":"1994-009A","EPOCH":"2026-04-27T04:51:38.611008","MEAN_MOTION":1.00273182,"ECCENTRICITY":0.00037,"INCLINATION":17.5424,"RA_OF_ASC_NODE":28.2644,"ARG_OF_PERICENTER":352.9898,"MEAN_ANOMALY":176.8653,"EPHEMERIS_TYPE":0,"CLASSIFICATION_TYPE":"U","NORAD_CAT_ID":22988,"ELEMENT_SET_NO":999,"REV_AT_EPOCH":3244,"BSTAR":0,"MEAN_MOTION_DOT":-2.07e-6,"MEAN_MOTION_DDOT":0},{"OBJECT_NAME":"UFO 4 (USA 108)","OBJECT_ID":"1995-003A","EPOCH":"2026-04-26T17:33:03.875040","MEAN_MOTION":1.00273374,"ECCENTRICITY":0.00034931,"INCLINATION":9.7013,"RA_OF_ASC_NODE":13.4008,"ARG_OF_PERICENTER":20.5488,"MEAN_ANOMALY":256.3397,"EPHEMERIS_TYPE":0,"CLASSIFICATION_TYPE":"U","NORAD_CAT_ID":23467,"ELEMENT_SET_NO":999,"REV_AT_EPOCH":11443,"BSTAR":0,"MEAN_MOTION_DOT":-3.2e-7,"MEAN_MOTION_DDOT":0},{"OBJECT_NAME":"TDRS 7","OBJECT_ID":"1995-035B","EPOCH":"2026-04-27T03:33:21.550176","MEAN_MOTION":1.00278005,"ECCENTRICITY":0.0010905,"INCLINATION":13.3989,"RA_OF_ASC_NODE":348.542,"ARG_OF_PERICENTER":64.9519,"MEAN_ANOMALY":304.0713,"EPHEMERIS_TYPE":0,"CLASSIFICATION_TYPE":"U","NORAD_CAT_ID":23613,"ELEMENT_SET_NO":999,"REV_AT_EPOCH":11274,"BSTAR":0,"MEAN_MOTION_DOT":-2.52e-6,"MEAN_MOTION_DDOT":0},{"OBJECT_NAME":"USA 115 (MILSTAR-1 2)","OBJECT_ID":"1995-060A","EPOCH":"2026-04-27T03:24:51.734016","MEAN_MOTION":1.0036653,"ECCENTRICITY":8.73e-5,"INCLINATION":14.0558,"RA_OF_ASC_NODE":4.1327,"ARG_OF_PERICENTER":356.5102,"MEAN_ANOMALY":154.1841,"EPHEMERIS_TYPE":0,"CLASSIFICATION_TYPE":"U","NORAD_CAT_ID":23712,"ELEMENT_SET_NO":999,"REV_AT_EPOCH":3237,"BSTAR":0,"MEAN_MOTION_DOT":-9.7e-7,"MEAN_MOTION_DDOT":0},{"OBJECT_NAME":"INMARSAT 3-F1","OBJECT_ID":"1996-020A","EPOCH":"2026-04-26T16:47:21.984864","MEAN_MOTION":0.99995002,"ECCENTRICITY":0.00040028,"INCLINATION":10.4965,"RA_OF_ASC_NODE":47.1006,"ARG_OF_PERICENTER":334.2703,"MEAN_ANOMALY":43.0834,"EPHEMERIS_TYPE":0,"CLASSIFICATION_TYPE":"U","NORAD_CAT_ID":23839,"ELEMENT_SET_NO":999,"REV_AT_EPOCH":10974,"BSTAR":0,"MEAN_MOTION_DOT":-2.92e-6,"MEAN_MOTION_DDOT":0},{"OBJECT_NAME":"INMARSAT 3-F2","OBJECT_ID":"1996-053A","EPOCH":"2026-04-27T04:24:10.815264","MEAN_MOTION":0.99994542,"ECCENTRICITY":0.0006669,"INCLINATION":9.7438,"RA_OF_ASC_NODE":54.4479,"ARG_OF_PERICENTER":345.8041,"MEAN_ANOMALY":79.98,"EPHEMERIS_TYPE":0,"CLASSIFICATION_TYPE":"U","NORAD_CAT_ID":24307,"ELEMENT_SET_NO":999,"REV_AT_EPOCH":10841,"BSTAR":0,"MEAN_MOTION_DOT":9.4e-7,"MEAN_MOTION_DDOT":0},{"OBJECT_NAME":"INMARSAT 3-F3","OBJECT_ID":"1996-070A","EPOCH":"2026-04-26T19:09:47.781216","MEAN_MOTION":0.9997814,"ECCENTRICITY":0.00047111,"INCLINATION":10.2094,"RA_OF_ASC_NODE":50.1354,"ARG_OF_PERICENTER":323.5018,"MEAN_ANOMALY":225.8544,"EPHEMERIS_TYPE":0,"CLASSIFICATION_TYPE":"U","NORAD_CAT_ID":24674,"ELEMENT_SET_NO":999,"REV_AT_EPOCH":10739,"BSTAR":0,"MEAN_MOTION_DOT":-2.42e-6,"MEAN_MOTION_DDOT":0},{"OBJECT_NAME":"AMC-3","OBJECT_ID":"1997-050A","EPOCH":"2026-04-26T20:04:12.564192","MEAN_MOTION":1.00271411,"ECCENTRICITY":0.000309,"INCLINATION":8.0228,"RA_OF_ASC_NODE":64.6637,"ARG_OF_PERICENTER":321.0795,"MEAN_ANOMALY":58.1392,"EPHEMERIS_TYPE":0,"CLASSIFICATION_TYPE":"U","NORAD_CAT_ID":24936,"ELEMENT_SET_NO":999,"REV_AT_EPOCH":5192,"BSTAR":0,"MEAN_MOTION_DOT":-2.68e-6,"MEAN_MOTION_DDOT":0},{"OBJECT_NAME":"USA 134","OBJECT_ID":"1997-065A","EPOCH":"2026-04-26T14:09:58.560768","MEAN_MOTION":1.00276282,"ECCENTRICITY":0.0006081,"INCLINATION":12.725,"RA_OF_ASC_NODE":22.1107,"ARG_OF_PERICENTER":324.7858,"MEAN_ANOMALY":327.866,"EPHEMERIS_TYPE":0,"CLASSIFICATION_TYPE":"U","NORAD_CAT_ID":25019,"ELEMENT_SET_NO":999,"REV_AT_EPOCH":3243,"BSTAR":0,"MEAN_MOTION_DOT":-7.2e-7,"MEAN_MOTION_DDOT":0},{"OBJECT_NAME":"INMARSAT 3-F5","OBJECT_ID":"1998-006B","EPOCH":"2026-04-27T04:00:44.567136","MEAN_MOTION":1.00271782,"ECCENTRICITY":0.0005048,"INCLINATION":9.5825,"RA_OF_ASC_NODE":53.7586,"ARG_OF_PERICENTER":341.4989,"MEAN_ANOMALY":186.1021,"EPHEMERIS_TYPE":0,"CLASSIFICATION_TYPE":"U","NORAD_CAT_ID":25153,"ELEMENT_SET_NO":999,"REV_AT_EPOCH":10338,"BSTAR":0,"MEAN_MOTION_DOT":-2.97e-6,"MEAN_MOTION_DDOT":0},{"OBJECT_NAME":"ABS-6","OBJECT_ID":"1999-053A","EPOCH":"2026-04-26T21:28:38.654112","MEAN_MOTION":1.00270741,"ECCENTRICITY":0.0003051,"INCLINATION":0.0522,"RA_OF_ASC_NODE":88.8943,"ARG_OF_PERICENTER":327.0123,"MEAN_ANOMALY":280.1575,"EPHEMERIS_TYPE":0,"CLASSIFICATION_TYPE":"U","NORAD_CAT_ID":25924,"ELEMENT_SET_NO":999,"REV_AT_EPOCH":9732,"BSTAR":0,"MEAN_MOTION_DOT":-1.31e-6,"MEAN_MOTION_DDOT":0}]
